{"type": "FeatureCollection", "features": [ {"type": "Feature", "properties": {"norad_id": 34031, "name": "COSMOS 2251 DEB", "group": "cosmos-2251-debris", "lat": 0.13994298622889867, "lon": 114.50275753642711, "alt_km": 705.9217511145825, "timestamp": "2025-12-23T20:42:37.469566+00:00", "meta": {"OBJECT_NAME": "COSMOS 2251 DEB", "OBJECT_ID": "1993-036HS", "EPOCH": "2025-12-23T02:52:52.757184", "MEAN_MOTION": 14.59799385, "ECCENTRICITY": 0.00228774, "INCLINATION": 74.0133, "RA_OF_ASC_NODE": 115.8811, "ARG_OF_PERICENTER": 235.7485, "MEAN_ANOMALY": 181.8569, "EPHEMERIS_TYPE": 0, "CLASSIFICATION_TYPE": "U", "NORAD_CAT_ID": 34031, "ELEMENT_SET_NO": 999, "REV_AT_EPOCH": 88717, "BSTAR": 0.0013975649, "MEAN_MOTION_DOT": 6.678e-05, "MEAN_MOTION_DDOT": 0}, "tle": {"line1": "1 34031U 93036HS  25357.12005506  .00006678  00000+0  13976-2 0  9997", "line2": "2 34031  74.0133 115.8811 0022877 235.7485 181.8569 14.59799385887175"}}, "geometry": {"type": "Point", "coordinates": [114.50275753642711, 0.13994298622889867]}}, {"type": "Feature", "properties": {"norad_id": 34035, "name": "COSMOS 2251 DEB", "group": "cosmos-2251-debris", "lat": -31.64167817126507, "lon": 158.35890361252336, "alt_km": 737.8193749541142, "timestamp": "2025-12-23T20:42:37.469576+00:00", "meta": {"OBJECT_NAME": "COSMOS 2251 DEB", "OBJECT_ID": "1993-036HW", "EPOCH": "2025-12-23T02:05:34.569888", "MEAN_MOTION": 14.520677, "ECCENTRICITY": 0.00452621, "INCLINATION": 74.066, "RA_OF_ASC_NODE": 329.6779, "ARG_OF_PERICENTER": 329.2158, "MEAN_ANOMALY": 150.7867, "EPHEMERIS_TYPE": 0, "CLASSIFICATION_TYPE": "U", "NORAD_CAT_ID": 34035, "ELEMENT_SET_NO": 999, "REV_AT_EPOCH": 88116, "BSTAR": 0.0018841872, "MEAN_MOTION_DOT": 7.705e-05, "MEAN_MOTION_DDOT": 0}, "tle": {"line1": "1 34035U 93036HW  25357.08720567  .00007705  00000+0  18842-2 0  9996", "line2": "2 34035  74.0660 329.6779 0045262 329.2158 150.7867 14.52067700881162"}}, "geometry": {"type": "Point", "coordinates": [158.35890361252336, -31.64167817126507]}}, {"type": "Feature", "properties": {"norad_id": 34036, "name": "COSMOS 2251 DEB", "group": "cosmos-2251-debris", "lat": 46.4697537632151, "lon": 144.35860851741575, "alt_km": 577.4261183613598, "timestamp": "2025-12-23T20:42:37.469586+00:00", "meta": {"OBJECT_NAME": "COSMOS 2251 DEB", "OBJECT_ID": "1993-036HX", "EPOCH": "2025-12-22T04:21:41.137632", "MEAN_MOTION": 14.95669086, "ECCENTRICITY": 0.00105023, "INCLINATION": 74.0197, "RA_OF_ASC_NODE": 130.1973, "ARG_OF_PERICENTER": 159.13, "MEAN_ANOMALY": 201.0316, "EPHEMERIS_TYPE": 0, "CLASSIFICATION_TYPE": "U", "NORAD_CAT_ID": 34036, "ELEMENT_SET_NO": 999, "REV_AT_EPOCH": 88711, "BSTAR": 0.0044991869, "MEAN_MOTION_DOT": 0.00050435, "MEAN_MOTION_DDOT": 0}, "tle": {"line1": "1 34036U 93036HX  25356.18172613  .00050435  00000+0  44992-2 0  9993", "line2": "2 34036  74.0197 130.1973 0010502 159.1300 201.0316 14.95669086887119"}}, "geometry": {"type": "Point", "coordinates": [144.35860851741575, 46.4697537632151]}}, {"type": "Feature", "properties": {"norad_id": 34037, "name": "COSMOS 2251 DEB", "group": "cosmos-2251-debris", "lat": -19.382820349565296, "lon": -144.1409126199199, "alt_km": 801.1182306415649, "timestamp": "2025-12-23T20:42:37.469596+00:00", "meta": {"OBJECT_NAME": "COSMOS 2251 DEB", "OBJECT_ID": "1993-036HY", "EPOCH": "2025-12-22T18:40:59.644704", "MEAN_MOTION": 14.34689065, "ECCENTRICITY": 0.0051802, "INCLINATION": 74.0511, "RA_OF_ASC_NODE": 32.069, "ARG_OF_PERICENTER": 78.9306, "MEAN_ANOMALY": 281.7666, "EPHEMERIS_TYPE": 0, "CLASSIFICATION_TYPE": "U", "NORAD_CAT_ID": 34037, "ELEMENT_SET_NO": 999, "REV_AT_EPOCH": 87861, "BSTAR": 0.00037361362, "MEAN_MOTION_DOT": 1.048e-05, "MEAN_MOTION_DDOT": 0}, "tle": {"line1": "1 34037U 93036HY  25356.77846811  .00001048  00000+0  37361-3 0  9996", "line2": "2 34037  74.0511  32.0690 0051802  78.9306 281.7666 14.34689065878618"}}, "geometry": {"type": "Point", "coordinates": [-144.1409126199199, -19.382820349565296]}}, {"type": "Feature", "properties": {"norad_id": 34040, "name": "COSMOS 2251 DEB", "group": "cosmos-2251-debris", "lat": -43.26304630577703, "lon": 31.770471878144182, "alt_km": 825.1272743278523, "timestamp": "2025-12-23T20:42:37.469607+00:00", "meta": {"OBJECT_NAME": "COSMOS 2251 DEB", "OBJECT_ID": "1993-036JB", "EPOCH": "2025-12-23T05:07:41.532960", "MEAN_MOTION": 13.68391474, "ECCENTRICITY": 0.03433928, "INCLINATION": 73.9556, "RA_OF_ASC_NODE": 48.556, "ARG_OF_PERICENTER": 359.8052, "MEAN_ANOMALY": 0.2874, "EPHEMERIS_TYPE": 0, "CLASSIFICATION_TYPE": "U", "NORAD_CAT_ID": 34040, "ELEMENT_SET_NO": 999, "REV_AT_EPOCH": 83743, "BSTAR": 0.00069412373, "MEAN_MOTION_DOT": 8.73e-06, "MEAN_MOTION_DDOT": 0}, "tle": {"line1": "1 34040U 93036JB  25357.21367515  .00000873  00000+0  69412-3 0  9996", "line2": "2 34040  73.9556  48.5560 0343392 359.8052   0.2874 13.68391474837434"}}, "geometry": {"type": "Point", "coordinates": [31.770471878144182, -43.26304630577703]}}, {"type": "Feature", "properties": {"norad_id": 34045, "name": "COSMOS 2251 DEB", "group": "cosmos-2251-debris", "lat": -38.04436097758827, "lon": 123.42039216905526, "alt_km": 800.5493051916319, "timestamp": "2025-12-23T20:42:37.469616+00:00", "meta": {"OBJECT_NAME": "COSMOS 2251 DEB", "OBJECT_ID": "1993-036JG", "EPOCH": "2025-12-23T05:09:24.266880", "MEAN_MOTION": 14.34074478, "ECCENTRICITY": 0.0026094, "INCLINATION": 74.0396, "RA_OF_ASC_NODE": 291.6647, "ARG_OF_PERICENTER": 12.301, "MEAN_ANOMALY": 103.1921, "EPHEMERIS_TYPE": 0, "CLASSIFICATION_TYPE": "U", "NORAD_CAT_ID": 34045, "ELEMENT_SET_NO": 999, "REV_AT_EPOCH": 88183, "BSTAR": 9.4512143e-05, "MEAN_MOTION_DOT": 2.39e-06, "MEAN_MOTION_DDOT": 0}, "tle": {"line1": "1 34045U 93036JG  25357.21486420  .00000239  00000+0  94512-4 0  9994", "line2": "2 34045  74.0396 291.6647 0026094  12.3010 103.1921 14.34074478881837"}}, "geometry": {"type": "Point", "coordinates": [123.42039216905526, -38.04436097758827]}}, {"type": "Feature", "properties": {"norad_id": 34046, "name": "COSMOS 2251 DEB", "group": "cosmos-2251-debris", "lat": -13.791125023214382, "lon": -14.325338605410277, "alt_km": 735.2855968982485, "timestamp": "2025-12-23T20:42:37.469627+00:00", "meta": {"OBJECT_NAME": "COSMOS 2251 DEB", "OBJECT_ID": "1993-036JH", "EPOCH": "2025-12-23T05:54:21.399264", "MEAN_MOTION": 14.46553163, "ECCENTRICITY": 0.00745049, "INCLINATION": 74.0394, "RA_OF_ASC_NODE": 350.8542, "ARG_OF_PERICENTER": 71.1454, "MEAN_ANOMALY": 304.4439, "EPHEMERIS_TYPE": 0, "CLASSIFICATION_TYPE": "U", "NORAD_CAT_ID": 34046, "ELEMENT_SET_NO": 999, "REV_AT_EPOCH": 87978, "BSTAR": 0.0012424159, "MEAN_MOTION_DOT": 4.61e-05, "MEAN_MOTION_DDOT": 0}, "tle": {"line1": "1 34046U 93036JH  25357.24608101  .00004610  00000+0  12424-2 0  9997", "line2": "2 34046  74.0394 350.8542 0074504  71.1454 304.4439 14.46553163879789"}}, "geometry": {"type": "Point", "coordinates": [-14.325338605410277, -13.791125023214382]}}, {"type": "Feature", "properties": {"norad_id": 34050, "name": "COSMOS 2251 DEB", "group": "cosmos-2251-debris", "lat": 7.228890725398292, "lon": -6.954136293785496, "alt_km": 795.93463152805, "timestamp": "2025-12-23T20:42:37.469637+00:00", "meta": {"OBJECT_NAME": "COSMOS 2251 DEB", "OBJECT_ID": "1993-036JM", "EPOCH": "2025-12-22T10:51:58.057920", "MEAN_MOTION": 13.96202564, "ECCENTRICITY": 0.02147395, "INCLINATION": 74.0882, "RA_OF_ASC_NODE": 353.3904, "ARG_OF_PERICENTER": 55.2191, "MEAN_ANOMALY": 68.8558, "EPHEMERIS_TYPE": 0, "CLASSIFICATION_TYPE": "U", "NORAD_CAT_ID": 34050, "ELEMENT_SET_NO": 999, "REV_AT_EPOCH": 85567, "BSTAR": 0.00071337825, "MEAN_MOTION_DOT": 1.169e-05, "MEAN_MOTION_DDOT": 0}, "tle": {"line1": "1 34050U 93036JM  25356.45275530  .00001169  00000+0  71338-3 0  9996", "line2": "2 34050  74.0882 353.3904 0214739  55.2191  68.8558 13.96202564855678"}}, "geometry": {"type": "Point", "coordinates": [-6.954136293785496, 7.228890725398292]}}, {"type": "Feature", "properties": {"norad_id": 34053, "name": "COSMOS 2251 DEB", "group": "cosmos-2251-debris", "lat": -69.14516524546916, "lon": 93.79360598374033, "alt_km": 1200.897836128509, "timestamp": "2025-12-23T20:42:37.469647+00:00", "meta": {"OBJECT_NAME": "COSMOS 2251 DEB", "OBJECT_ID": "1993-036JQ", "EPOCH": "2025-12-22T09:36:54.068256", "MEAN_MOTION": 13.491756, "ECCENTRICITY": 0.04227624, "INCLINATION": 73.8432, "RA_OF_ASC_NODE": 226.6036, "ARG_OF_PERICENTER": 13.5682, "MEAN_ANOMALY": 347.6376, "EPHEMERIS_TYPE": 0, "CLASSIFICATION_TYPE": "U", "NORAD_CAT_ID": 34053, "ELEMENT_SET_NO": 999, "REV_AT_EPOCH": 82814, "BSTAR": 0.00057141905, "MEAN_MOTION_DOT": 6.02e-06, "MEAN_MOTION_DDOT": 0}, "tle": {"line1": "1 34053U 93036JQ  25356.40062579  .00000602  00000+0  57142-3 0  9999", "line2": "2 34053  73.8432 226.6036 0422762  13.5682 347.6376 13.49175600828142"}}, "geometry": {"type": "Point", "coordinates": [93.79360598374033, -69.14516524546916]}}, {"type": "Feature", "properties": {"norad_id": 34056, "name": "COSMOS 2251 DEB", "group": "cosmos-2251-debris", "lat": 46.867133648656605, "lon": 74.25136379624078, "alt_km": 763.2699435593486, "timestamp": "2025-12-23T20:42:37.469657+00:00", "meta": {"OBJECT_NAME": "COSMOS 2251 DEB", "OBJECT_ID": "1993-036JT", "EPOCH": "2025-12-23T05:31:55.373664", "MEAN_MOTION": 14.20591114, "ECCENTRICITY": 0.01237371, "INCLINATION": 74.0583, "RA_OF_ASC_NODE": 57.6183, "ARG_OF_PERICENTER": 102.6977, "MEAN_ANOMALY": 314.8036, "EPHEMERIS_TYPE": 0, "CLASSIFICATION_TYPE": "U", "NORAD_CAT_ID": 34056, "ELEMENT_SET_NO": 999, "REV_AT_EPOCH": 86560, "BSTAR": 0.0006669396, "MEAN_MOTION_DOT": 1.526e-05, "MEAN_MOTION_DDOT": 0}, "tle": {"line1": "1 34056U 93036JT  25357.23050201  .00001526  00000+0  66694-3 0  9991", "line2": "2 34056  74.0583  57.6183 0123737 102.6977 314.8036 14.20591114865600"}}, "geometry": {"type": "Point", "coordinates": [74.25136379624078, 46.867133648656605]}}]}